ONEWEB-0199             
1 48234U 21031AA  25091.54994628  .00000173  00000+0  43176-3 0  9996
2 48234  87.9089  17.5151 0001992  77.8951 282.2402 13.14502187190240
ONEWEB-0203             
1 48235U 21031AB  25091.54042917  .00000220  00000+0  55955-3 0  9993
2 48235  87.9088  17.5195 0002046  68.9041 291.2307 13.14502364190252
ONEWEB-0197             
1 48236U 21031AC  25091.82032652 -.00000087  00000+0 -26887-3 0  9995
2 48236  87.9088  17.4749 0001939  88.0762 272.0590 13.14504831190207
ONEWEB-0194             
1 48237U 21031AD  25091.49444377 -.00000007  00000+0 -54119-4 0  9992
2 48237  87.9093  17.5348 0002034  73.7844 286.3510 13.14502390190331
ONEWEB-0193             
1 48238U 21031AE  25091.51030300 -.00000139  00000+0 -40830-3 0  9993
2 48238  87.9092  17.5394 0001831  73.5872 286.5459 13.14504326190284
ONEWEB-0191             
1 48239U 21031AF  25091.52138182 -.00000136  00000+0 -40058-3 0  9991
2 48239  87.9086  17.5125 0001866  68.8674 291.2655 13.14489812190143
ONEWEB-0195             
1 48240U 21031AG  25091.34616856 -.00000091  00000+0 -28115-3 0  9992
2 48240  87.9089  17.5449 0001471  69.5659 290.5629 13.14503136190105
ONEWEB-0201             
1 48241U 21031AH  25091.48666331  .00000121  00000+0  29229-3 0  9990
2 48241  87.9092  17.5610 0001631  83.0642 277.0673 13.14499039190353
