<?xml version="1.0" encoding="UTF-8"?>
<ndm xmlns:xsi="http://www.w3.org/2001/XMLSchema-instance" xsi:noNamespaceSchemaLocation="https://sanaregistry.org/r/ndmxml_unqualified/ndmxml-2.0.0-master-2.0.xsd">
<omm id="CCSDS_OMM_VERS" version="2.0">
<header><CREATION_DATE/><ORIGINATOR/></header><body><segment><metadata><OBJECT_NAME>ONEWEB-0199</OBJECT_NAME><OBJECT_ID>2021-031AA</OBJECT_ID><CENTER_NAME>EARTH</CENTER_NAME><REF_FRAME>TEME</REF_FRAME><TIME_SYSTEM>UTC</TIME_SYSTEM><MEAN_ELEMENT_THEORY>SGP4</MEAN_ELEMENT_THEORY></metadata><data><meanElements><EPOCH>2025-04-01T13:11:55.358592</EPOCH><MEAN_MOTION>13.14502187</MEAN_MOTION><ECCENTRICITY>.0001992</ECCENTRICITY><INCLINATION>87.9089</INCLINATION><RA_OF_ASC_NODE>17.5151</RA_OF_ASC_NODE><ARG_OF_PERICENTER>77.8951</ARG_OF_PERICENTER><MEAN_ANOMALY>282.2402</MEAN_ANOMALY></meanElements><tleParameters><EPHEMERIS_TYPE>0</EPHEMERIS_TYPE><CLASSIFICATION_TYPE>U</CLASSIFICATION_TYPE><NORAD_CAT_ID>48234</NORAD_CAT_ID><ELEMENT_SET_NO>999</ELEMENT_SET_NO><REV_AT_EPOCH>19024</REV_AT_EPOCH><BSTAR>.43176E-3</BSTAR><MEAN_MOTION_DOT>.173E-5</MEAN_MOTION_DOT><MEAN_MOTION_DDOT>0</MEAN_MOTION_DDOT></tleParameters></data></segment></body></omm>
<omm id="CCSDS_OMM_VERS" version="2.0">
<header><CREATION_DATE/><ORIGINATOR/></header><body><segment><metadata><OBJECT_NAME>ONEWEB-0203</OBJECT_NAME><OBJECT_ID>2021-031AB</OBJECT_ID><CENTER_NAME>EARTH</CENTER_NAME><REF_FRAME>TEME</REF_FRAME><TIME_SYSTEM>UTC</TIME_SYSTEM><MEAN_ELEMENT_THEORY>SGP4</MEAN_ELEMENT_THEORY></metadata><data><meanElements><EPOCH>2025-04-01T12:58:13.080288</EPOCH><MEAN_MOTION>13.14502364</MEAN_MOTION><ECCENTRICITY>.0002046</ECCENTRICITY><INCLINATION>87.9088</INCLINATION><RA_OF_ASC_NODE>17.5195</RA_OF_ASC_NODE><ARG_OF_PERICENTER>68.9041</ARG_OF_PERICENTER><MEAN_ANOMALY>291.2307</MEAN_ANOMALY></meanElements><tleParameters><EPHEMERIS_TYPE>0</EPHEMERIS_TYPE><CLASSIFICATION_TYPE>U</CLASSIFICATION_TYPE><NORAD_CAT_ID>48235</NORAD_CAT_ID><ELEMENT_SET_NO>999</ELEMENT_SET_NO><REV_AT_EPOCH>19025</REV_AT_EPOCH><BSTAR>.55955E-3</BSTAR><MEAN_MOTION_DOT>.22E-5</MEAN_MOTION_DOT><MEAN_MOTION_DDOT>0</MEAN_MOTION_DDOT></tleParameters></data></segment></body></omm>
<omm id="CCSDS_OMM_VERS" version="2.0">
<header><CREATION_DATE/><ORIGINATOR/></header><body><segment><metadata><OBJECT_NAME>ONEWEB-0197</OBJECT_NAME><OBJECT_ID>2021-031AC</OBJECT_ID><CENTER_NAME>EARTH</CENTER_NAME><REF_FRAME>TEME</REF_FRAME><TIME_SYSTEM>UTC</TIME_SYSTEM><MEAN_ELEMENT_THEORY>SGP4</MEAN_ELEMENT_THEORY></metadata><data><meanElements><EPOCH>2025-04-01T19:41:16.211328</EPOCH><MEAN_MOTION>13.14504831</MEAN_MOTION><ECCENTRICITY>.0001939</ECCENTRICITY><INCLINATION>87.9088</INCLINATION><RA_OF_ASC_NODE>17.4749</RA_OF_ASC_NODE><ARG_OF_PERICENTER>88.0762</ARG_OF_PERICENTER><MEAN_ANOMALY>272.0590</MEAN_ANOMALY></meanElements><tleParameters><EPHEMERIS_TYPE>0</EPHEMERIS_TYPE><CLASSIFICATION_TYPE>U</CLASSIFICATION_TYPE><NORAD_CAT_ID>48236</NORAD_CAT_ID><ELEMENT_SET_NO>999</ELEMENT_SET_NO><REV_AT_EPOCH>19020</REV_AT_EPOCH><BSTAR>-.26887E-3</BSTAR><MEAN_MOTION_DOT>-.87E-6</MEAN_MOTION_DOT><MEAN_MOTION_DDOT>0</MEAN_MOTION_DDOT></tleParameters></data></segment></body></omm>
<omm id="CCSDS_OMM_VERS" version="2.0">
<header><CREATION_DATE/><ORIGINATOR/></header><body><segment><metadata><OBJECT_NAME>ONEWEB-0194</OBJECT_NAME><OBJECT_ID>2021-031AD</OBJECT_ID><CENTER_NAME>EARTH</CENTER_NAME><REF_FRAME>TEME</REF_FRAME><TIME_SYSTEM>UTC</TIME_SYSTEM><MEAN_ELEMENT_THEORY>SGP4</MEAN_ELEMENT_THEORY></metadata><data><meanElements><EPOCH>2025-04-01T11:51:59.941728</EPOCH><MEAN_MOTION>13.14502390</MEAN_MOTION><ECCENTRICITY>.0002034</ECCENTRICITY><INCLINATION>87.9093</INCLINATION><RA_OF_ASC_NODE>17.5348</RA_OF_ASC_NODE><ARG_OF_PERICENTER>73.7844</ARG_OF_PERICENTER><MEAN_ANOMALY>286.3510</MEAN_ANOMALY></meanElements><tleParameters><EPHEMERIS_TYPE>0</EPHEMERIS_TYPE><CLASSIFICATION_TYPE>U</CLASSIFICATION_TYPE><NORAD_CAT_ID>48237</NORAD_CAT_ID><ELEMENT_SET_NO>999</ELEMENT_SET_NO><REV_AT_EPOCH>19033</REV_AT_EPOCH><BSTAR>-.54119E-4</BSTAR><MEAN_MOTION_DOT>-.7E-7</MEAN_MOTION_DOT><MEAN_MOTION_DDOT>0</MEAN_MOTION_DDOT></tleParameters></data></segment></body></omm>
<omm id="CCSDS_OMM_VERS" version="2.0">
<header><CREATION_DATE/><ORIGINATOR/></header><body><segment><metadata><OBJECT_NAME>ONEWEB-0193</OBJECT_NAME><OBJECT_ID>2021-031AE</OBJECT_ID><CENTER_NAME>EARTH</CENTER_NAME><REF_FRAME>TEME</REF_FRAME><TIME_SYSTEM>UTC</TIME_SYSTEM><MEAN_ELEMENT_THEORY>SGP4</MEAN_ELEMENT_THEORY></metadata><data><meanElements><EPOCH>2025-04-01T12:14:50.179200</EPOCH><MEAN_MOTION>13.14504326</MEAN_MOTION><ECCENTRICITY>.0001831</ECCENTRICITY><INCLINATION>87.9092</INCLINATION><RA_OF_ASC_NODE>17.5394</RA_OF_ASC_NODE><ARG_OF_PERICENTER>73.5872</ARG_OF_PERICENTER><MEAN_ANOMALY>286.5459</MEAN_ANOMALY></meanElements><tleParameters><EPHEMERIS_TYPE>0</EPHEMERIS_TYPE><CLASSIFICATION_TYPE>U</CLASSIFICATION_TYPE><NORAD_CAT_ID>48238</NORAD_CAT_ID><ELEMENT_SET_NO>999</ELEMENT_SET_NO><REV_AT_EPOCH>19028</REV_AT_EPOCH><BSTAR>-.4083E-3</BSTAR><MEAN_MOTION_DOT>-.139E-5</MEAN_MOTION_DOT><MEAN_MOTION_DDOT>0</MEAN_MOTION_DDOT></tleParameters></data></segment></body></omm>
<omm id="CCSDS_OMM_VERS" version="2.0">
<header><CREATION_DATE/><ORIGINATOR/></header><body><segment><metadata><OBJECT_NAME>ONEWEB-0191</OBJECT_NAME><OBJECT_ID>2021-031AF</OBJECT_ID><CENTER_NAME>EARTH</CENTER_NAME><REF_FRAME>TEME</REF_FRAME><TIME_SYSTEM>UTC</TIME_SYSTEM><MEAN_ELEMENT_THEORY>SGP4</MEAN_ELEMENT_THEORY></metadata><data><meanElements><EPOCH>2025-04-01T12:30:47.389248</EPOCH><MEAN_MOTION>13.14489812</MEAN_MOTION><ECCENTRICITY>.0001866</ECCENTRICITY><INCLINATION>87.9086</INCLINATION><RA_OF_ASC_NODE>17.5125</RA_OF_ASC_NODE><ARG_OF_PERICENTER>68.8674</ARG_OF_PERICENTER><MEAN_ANOMALY>291.2655</MEAN_ANOMALY></meanElements><tleParameters><EPHEMERIS_TYPE>0</EPHEMERIS_TYPE><CLASSIFICATION_TYPE>U</CLASSIFICATION_TYPE><NORAD_CAT_ID>48239</NORAD_CAT_ID><ELEMENT_SET_NO>999</ELEMENT_SET_NO><REV_AT_EPOCH>19014</REV_AT_EPOCH><BSTAR>-.40058E-3</BSTAR><MEAN_MOTION_DOT>-.136E-5</MEAN_MOTION_DOT><MEAN_MOTION_DDOT>0</MEAN_MOTION_DDOT></tleParameters></data></segment></body></omm>
<omm id="CCSDS_OMM_VERS" version="2.0">
<header><CREATION_DATE/><ORIGINATOR/></header><body><segment><metadata><OBJECT_NAME>ONEWEB-0195</OBJECT_NAME><OBJECT_ID>2021-031AG</OBJECT_ID><CENTER_NAME>EARTH</CENTER_NAME><REF_FRAME>TEME</REF_FRAME><TIME_SYSTEM>UTC</TIME_SYSTEM><MEAN_ELEMENT_THEORY>SGP4</MEAN_ELEMENT_THEORY></metadata><data><meanElements><EPOCH>2025-04-01T08:18:28.963584</EPOCH><MEAN_MOTION>13.14503136</MEAN_MOTION><ECCENTRICITY>.0001471</ECCENTRICITY><INCLINATION>87.9089</INCLINATION><RA_OF_ASC_NODE>17.5449</RA_OF_ASC_NODE><ARG_OF_PERICENTER>69.5659</ARG_OF_PERICENTER><MEAN_ANOMALY>290.5629</MEAN_ANOMALY></meanElements><tleParameters><EPHEMERIS_TYPE>0</EPHEMERIS_TYPE><CLASSIFICATION_TYPE>U</CLASSIFICATION_TYPE><NORAD_CAT_ID>48240</NORAD_CAT_ID><ELEMENT_SET_NO>999</ELEMENT_SET_NO><REV_AT_EPOCH>19010</REV_AT_EPOCH><BSTAR>-.28115E-3</BSTAR><MEAN_MOTION_DOT>-.91E-6</MEAN_MOTION_DOT><MEAN_MOTION_DDOT>0</MEAN_MOTION_DDOT></tleParameters></data></segment></body></omm>
<omm id="CCSDS_OMM_VERS" version="2.0">
<header><CREATION_DATE/><ORIGINATOR/></header><body><segment><metadata><OBJECT_NAME>ONEWEB-0201</OBJECT_NAME><OBJECT_ID>2021-031AH</OBJECT_ID><CENTER_NAME>EARTH</CENTER_NAME><REF_FRAME>TEME</REF_FRAME><TIME_SYSTEM>UTC</TIME_SYSTEM><MEAN_ELEMENT_THEORY>SGP4</MEAN_ELEMENT_THEORY></metadata><data><meanElements><EPOCH>2025-04-01T11:40:47.709984</EPOCH><MEAN_MOTION>13.14499039</MEAN_MOTION><ECCENTRICITY>.0001631</ECCENTRICITY><INCLINATION>87.9092</INCLINATION><RA_OF_ASC_NODE>17.5610</RA_OF_ASC_NODE><ARG_OF_PERICENTER>83.0642</ARG_OF_PERICENTER><MEAN_ANOMALY>277.0673</MEAN_ANOMALY></meanElements><tleParameters><EPHEMERIS_TYPE>0</EPHEMERIS_TYPE><CLASSIFICATION_TYPE>U</CLASSIFICATION_TYPE><NORAD_CAT_ID>48241</NORAD_CAT_ID><ELEMENT_SET_NO>999</ELEMENT_SET_NO><REV_AT_EPOCH>19035</REV_AT_EPOCH><BSTAR>.29229E-3</BSTAR><MEAN_MOTION_DOT>.121E-5</MEAN_MOTION_DOT><MEAN_MOTION_DDOT>0</MEAN_MOTION_DDOT></tleParameters></data></segment></body></omm>

</ndm>
